IRIDIUM 166             
1 43570U 18061B   24018.67678600  .00000102  00000+0  29189-4 0  9995
2 43570  86.3939  64.7221 0001897  86.4565 273.6847 14.34216461287196
IRIDIUM 158             
1 43571U 18061C   24019.48229093  .00000448  00000+0  15303-3 0  9999
2 43571  86.3941  64.3940 0001841  95.7311 264.4095 14.34214730287285
IRIDIUM 165             
1 43572U 18061D   24019.50766213  .00000383  00000+0  12975-3 0  9993
2 43572  86.3939  64.4131 0001971 100.5314 259.6104 14.34220602287303
IRIDIUM 155             
1 43573U 18061E   24019.19053589  .00000456  00000+0  15575-3 0  9994
2 43573  86.3937  64.4586 0002243  87.5279 272.6174 14.34215671287237
IRIDIUM 154             
1 43574U 18061F   24019.52035171  .00000419  00000+0  14269-3 0  9997
2 43574  86.3939  64.4108 0002399  98.0655 262.0814 14.34217680287323
IRIDIUM 163             
1 43575U 18061G   24019.50132107  .00000440  00000+0  15008-3 0  9999
2 43575  86.3939  64.3619 0002285  95.0423 265.1034 14.34215706287295
IRIDIUM 156             
1 43576U 18061H   24019.47594448  .00000461  00000+0  15739-3 0  9990
2 43576  86.3936  64.3783 0001912  93.5311 266.6103 14.34222574287272
IRIDIUM 164             
1 43577U 18061J   24018.61969691  .00000352  00000+0  11846-3 0  9996
2 43577  86.3939  64.7632 0002014  97.7609 262.3815 14.34221386287209
